{
    "type": "FeatureCollection",
    "features": [
        {
            "type": "Feature",
            "properties": {
                "name": "El Hierro",
                "elevation": 10
            },
            "geometry": {
                "type": "Polygon",
                "coordinates": [
                    [
                        [-18.131561, 27.770444],
                        [-18.138771, 27.763456],
                        [-18.152161, 27.75738],
                        [-18.153534, 27.750696],
                        [-18.151474, 27.747658],
                        [-18.151131, 27.728514],
                        [-18.156967, 27.727906],
                        [-18.158684, 27.716661],
                        [-18.144951, 27.705111],
                        [-18.128471, 27.706935],
                        [-18.103752, 27.702984],
                        [-18.083153, 27.699032],
                        [-18.06015, 27.696296],
                        [-18.039551, 27.688392],
                        [-18.028221, 27.679576],
                        [-18.026505, 27.671671],
                        [-18.017921, 27.667414],
                        [-18.017921, 27.660724],
                        [-18.006935, 27.650993],
                        [-17.994919, 27.646431],
                        [-17.993546, 27.641261],
                        [-17.984276, 27.63974],
                        [-17.97226, 27.648256],
                        [-17.973633, 27.671062],
                        [-17.96917, 27.680792],
                        [-17.965393, 27.691736],
                        [-17.961273, 27.696296],
                        [-17.959213, 27.720005],
                        [-17.952347, 27.72821],
                        [-17.942734, 27.732768],
                        [-17.936554, 27.72973],
                        [-17.927628, 27.73368],
                        [-17.918015, 27.758899],
                        [-17.911835, 27.765583],
                        [-17.914581, 27.770444],
                        [-17.905655, 27.780468],
                        [-17.902222, 27.785328],
                        [-17.887802, 27.80021],
                        [-17.883682, 27.802639],
                        [-17.884712, 27.816305],
                        [-17.893982, 27.822985],
                        [-17.896042, 27.833308],
                        [-17.903595, 27.838773],
                        [-17.914238, 27.842416],
                        [-17.918358, 27.846362],
                        [-17.929688, 27.848183],
                        [-17.938614, 27.846362],
                        [-17.946854, 27.840594],
                        [-17.957497, 27.841201],
                        [-17.971916, 27.827236],
                        [-17.987022, 27.821467],
                        [-17.993889, 27.823288],
                        [-17.984962, 27.808713],
                        [-17.991486, 27.794743],
                        [-18.005905, 27.788061],
                        [-18.015518, 27.781987],
                        [-18.019295, 27.774089],
                        [-18.028221, 27.768925],
                        [-18.036804, 27.76133],
                        [-18.05191, 27.758899],
                        [-18.073196, 27.752519],
                        [-18.093452, 27.754038],
                        [-18.118515, 27.760115],
                        [-18.122292, 27.768317],
                        [-18.131561, 27.770444]
                    ]
                ]
            }
        },
        {
            "type": "Feature",
            "properties": {
                "name": "El Hierro Peak",
                "elevation": 4830
            },
            "geometry": {
                "type": "Polygon",
                "coordinates": [
                    [
                        [-18.064098, 27.747506],
                        [-18.075085, 27.742492],
                        [-18.084869, 27.742492],
                        [-18.095684, 27.745227],
                        [-18.114052, 27.747506],
                        [-18.121948, 27.742948],
                        [-18.121948, 27.731705],
                        [-18.117485, 27.724563],
                        [-18.110447, 27.722132],
                        [-18.100319, 27.721524],
                        [-18.090019, 27.716357],
                        [-18.078003, 27.716661],
                        [-18.061695, 27.713318],
                        [-18.050709, 27.707391],
                        [-18.040924, 27.702984],
                        [-18.037491, 27.70192],
                        [-18.037319, 27.709671],
                        [-18.026676, 27.706783],
                        [-18.011742, 27.704504],
                        [-18.000584, 27.698728],
                        [-17.995777, 27.7042],
                        [-17.985992, 27.710279],
                        [-17.986507, 27.713774],
                        [-17.980671, 27.716965],
                        [-17.976379, 27.720764],
                        [-17.970543, 27.715142],
                        [-17.96402, 27.717877],
                        [-17.965908, 27.720612],
                        [-17.967281, 27.725627],
                        [-17.966595, 27.733224],
                        [-17.967625, 27.737479],
                        [-17.969513, 27.73839],
                        [-17.980843, 27.739302],
                        [-17.986336, 27.739606],
                        [-17.982903, 27.744923],
                        [-17.978954, 27.755557],
                        [-17.977409, 27.758748],
                        [-17.981014, 27.766343],
                        [-17.984447, 27.768469],
                        [-17.990971, 27.765279],
                        [-17.993889, 27.757988],
                        [-17.994747, 27.751912],
                        [-18.003674, 27.746898],
                        [-18.010883, 27.743252],
                        [-18.016376, 27.741429],
                        [-18.019638, 27.73839],
                        [-18.027878, 27.741581],
                        [-18.037663, 27.748721],
                        [-18.053112, 27.748873],
                        [-18.063326, 27.747582],
                        [-18.064098, 27.747506]
                    ]
                ]
            }
        },
        {
            "type": "Feature",
            "properties": {
                "name": "El Hierro Mid-Elevation",
                "elevation": 3281
            },
            "geometry": {
                "type": "Polygon",
                "coordinates": [
                    [
                        [-17.953377, 27.801197],
                        [-17.954321, 27.796262],
                        [-17.954063, 27.792465],
                        [-17.952347, 27.790339],
                        [-17.953463, 27.787226],
                        [-17.957067, 27.783809],
                        [-17.958441, 27.782063],
                        [-17.956467, 27.77986],
                        [-17.958097, 27.77819],
                        [-17.957582, 27.776747],
                        [-17.95063, 27.779709],
                        [-17.947025, 27.775152],
                        [-17.945395, 27.779784],
                        [-17.944794, 27.785252],
                        [-17.941103, 27.787758],
                        [-17.938871, 27.782822],
                        [-17.93046, 27.784568],
                        [-17.927542, 27.788213],
                        [-17.930117, 27.791023],
                        [-17.933893, 27.792617],
                        [-17.928829, 27.796641],
                        [-17.927113, 27.799603],
                        [-17.922907, 27.801273],
                        [-17.920933, 27.80431],
                        [-17.926598, 27.812053],
                        [-17.932177, 27.814862],
                        [-17.937069, 27.815546],
                        [-17.949686, 27.808334],
                        [-17.950287, 27.807954],
                        [-17.95269, 27.805259],
                        [-17.953377, 27.801425],
                        [-17.953377, 27.801197]
                    ]
                ]
            }
        }
    ]
}
