{
    "type": "FeatureCollection",
    "features": [
        {
            "type": "Feature",
            "properties": { "name": "Gran Canaria", "elevation": 0 },
            "geometry": {
                "coordinates": [
                    [
                        [-15.710902759748052, 28.083244763631015],
                        [-15.725923739050568, 28.069408521078437],
                        [-15.734265840012672, 28.06579263595271],
                        [-15.740944718353086, 28.05557227852586],
                        [-15.765165397780397, 28.042576974757615],
                        [-15.785228020654968, 28.022270713024117],
                        [-15.821922869746182, 28.014443332457617],
                        [-15.821611015504674, 27.990848843921466],
                        [-15.836268164858293, 27.973128892674204],
                        [-15.828471808819193, 27.942189806842965],
                        [-15.83398123375359, 27.90684282318165],
                        [-15.808409185944956, 27.876925723286618],
                        [-15.797806141731392, 27.845538445355515],
                        [-15.751651713979129, 27.80482123844061],
                        [-15.7229611237548, 27.785599750557502],
                        [-15.699260201395532, 27.75901927586615],
                        [-15.641047409636116, 27.74117359751216],
                        [-15.573686893457037, 27.72958165704113],
                        [-15.557886278550505, 27.757639091097463],
                        [-15.492188984993646, 27.78275297056571],
                        [-15.430857650818457, 27.800139288632664],
                        [-15.403622380388562, 27.838876994542186],
                        [-15.382312340548127, 27.852184872032723],
                        [-15.382624194789567, 27.8831385370071],
                        [-15.361626009190573, 27.927400079472015],
                        [-15.360586495052548, 28.001039683846415],
                        [-15.404453991699931, 28.053382324380255],
                        [-15.410067368047773, 28.119659855019968],
                        [-15.400711740800489, 28.13899270533534],
                        [-15.399880129488885, 28.176107879730303],
                        [-15.427323302746757, 28.17803132928996],
                        [-15.442292306342267, 28.169416306761995],
                        [-15.443123917653523, 28.144672036577493],
                        [-15.460171949525936, 28.130831800495727],
                        [-15.479714815330794, 28.132390939436902],
                        [-15.527116660049444, 28.156223011541876],
                        [-15.583666229187344, 28.14852628969561],
                        [-15.609238276996024, 28.151090717107138],
                        [-15.634810324804704, 28.172717873230198],
                        [-15.663293012201365, 28.161721259441578],
                        [-15.674831619140448, 28.16117096923245],
                        [-15.680964752557117, 28.173450610337937],
                        [-15.692633298762289, 28.17111273254681],
                        [-15.69848056579167, 28.165109340923816],
                        [-15.712669933782905, 28.16483247821332],
                        [-15.698636492912641, 28.153281759217766],
                        [-15.707160508848887, 28.125047368914586],
                        [-15.714437107818924, 28.10084503705927],
                        [-15.709187561419292, 28.09809560821445],
                        [-15.707264460263033, 28.093512172379818],
                        [-15.710902759748052, 28.083244763631015]
                    ]
                ],
                "type": "Polygon"
            }
        },
        {
            "type": "Feature",
            "properties": { "name": "Arinaga", "elevation": 199 },
            "geometry": {
                "coordinates": [
                    [
                        [-15.39653432614071, 27.870199134462197],
                        [-15.396534326140653, 27.86571471453422],
                        [-15.393324854998099, 27.865257083144606],
                        [-15.390529509164281, 27.866629975149024],
                        [-15.391254228454528, 27.869558473190196],
                        [-15.392962495353004, 27.871526198347823],
                        [-15.39653432614071, 27.870199134462197]
                    ]
                ],
                "type": "Polygon"
            }
        },
        {
            "type": "Feature",
            "properties": { "name": "Tamadaba", "elevation": 1443 },
            "geometry": {
                "coordinates": [
                    [
                        [-15.715434694417837, 28.062381150681006],
                        [-15.715434694417837, 28.032335450050354],
                        [-15.720895795711328, 28.030940881098637],
                        [-15.729355148695419, 28.02500928811503],
                        [-15.711579799387067, 28.004448915952125],
                        [-15.6963743800992, 28.004874386592007],
                        [-15.68887875087276, 28.014753791524285],
                        [-15.67916120298186, 28.013807531111006],
                        [-15.657276642651148, 28.01702116128479],
                        [-15.64674260657759, 28.026284353407846],
                        [-15.66542813943488, 28.031953836100897],
                        [-15.671960044903642, 28.04064594612406],
                        [-15.663393611501768, 28.062758094312606],
                        [-15.683738890830412, 28.0737191263366],
                        [-15.715434694417837, 28.062381150681006]
                    ]
                ],
                "type": "Polygon"
            }
        },
        {
            "type": "Feature",
            "properties": { "name": "Tirajana", "elevation": 1512 },
            "geometry": {
                "coordinates": [
                    [
                        [-15.637757552460755, 27.934507000813],
                        [-15.628119284992593, 27.919908757575207],
                        [-15.64821701760556, 27.907449142387932],
                        [-15.6659375990493, 27.867251937439846],
                        [-15.643576257712866, 27.866789891491962],
                        [-15.635201261605399, 27.867139031379494],
                        [-15.633341320892278, 27.855968527163327],
                        [-15.623316547148903, 27.848862776054943],
                        [-15.593011076447851, 27.88803549566103],
                        [-15.575636262446977, 27.90745236643609],
                        [-15.575204053143466, 27.927786308335328],
                        [-15.59386789309734, 27.931986656039463],
                        [-15.610457128394359, 27.93832541118313],
                        [-15.637757552460755, 27.934507000813]
                    ]
                ],
                "type": "Polygon"
            }
        },
        {
            "type": "Feature",
            "properties": { "name": "Cumbre", "elevation": 1910 },
            "geometry": {
                "coordinates": [
                    [
                        [-15.602836774740268, 27.982207148776794],
                        [-15.615120683209277, 27.976391457834218],
                        [-15.622292213587187, 27.970324937385044],
                        [-15.617969253883267, 27.958979632625066],
                        [-15.607463268043656, 27.961569260140596],
                        [-15.60386017653559, 27.948494654184103],
                        [-15.59873115350834, 27.936976652011786],
                        [-15.589928426313747, 27.93925188928182],
                        [-15.57512383142413, 27.956450160559815],
                        [-15.55108855387003, 27.962483885186195],
                        [-15.541822368579822, 27.97742382700738],
                        [-15.539035412467637, 27.989533914531492],
                        [-15.560674262790883, 27.998634375248457],
                        [-15.562945517874835, 27.998289510522255],
                        [-15.565216772958788, 27.996189184353117],
                        [-15.572031451167156, 27.991737708624733],
                        [-15.580548429492794, 27.991612351784156],
                        [-15.602836774740268, 27.982207148776794]
                    ]
                ],
                "type": "Polygon"
            }
        },
        {
            "type": "Feature",
            "properties": { "name": "Pajonales", "elevation": 1575 },
            "geometry": {
                "coordinates": [
                    [
                        [-15.753234532493792, 27.96204947263928],
                        [-15.75878414413907, 27.9506442401902],
                        [-15.754626120186714, 27.938724492112442],
                        [-15.737328575715132, 27.927077471138634],
                        [-15.720264732713431, 27.923768915908546],
                        [-15.712693475868146, 27.916767553330146],
                        [-15.701313161231845, 27.91454900825725],
                        [-15.679626516614576, 27.918520283306563],
                        [-15.650997034157953, 27.933324758445046],
                        [-15.651578774851032, 27.936187173727582],
                        [-15.64816887815694, 27.937356868895783],
                        [-15.640750339160622, 27.936663472653343],
                        [-15.636046113587602, 27.935934832477507],
                        [-15.630942724275904, 27.939720061041807],
                        [-15.62745370955085, 27.955072145203133],
                        [-15.687002244022878, 27.963665364133696],
                        [-15.700696563639294, 27.963047019281994],
                        [-15.721380380885996, 27.959856382343187],
                        [-15.753234532493792, 27.96204947263928]
                    ]
                ],
                "type": "Polygon"
            }
        }
    ]
}
